NORAD_CAT_ID,OBJECT_NAME,OBJECT_TYPE,EPOCH,MEAN_MOTION,ECCENTRICITY,INCLINATION,RA_OF_ASC_NODE,ARG_OF_PERICENTER,MEAN_ANOMALY,BSTAR,MEAN_MOTION_DOT,MEAN_MOTION_DDOT,TLE_LINE0,TLE_LINE1,TLE_LINE2,SEMIMAJOR_AXIS,PERIOD,APOGEE,PERIGEE,DECAYED
52133.0,STARLINK-3707,PAYLOAD,2024-04-30 15:13:32,15.08838519,9.4e-05,53.2175,233.0309,76.2419,283.8678,0.00037389,5.667e-05,0.0,0 STARLINK-3707,1 52133U 22029AX  24121.63440279  .00005667  00000-0  37389-3 0  9991,2 52133  53.2175 233.0309 0000940  76.2419 283.8678 15.08838519118573,6917.885,95.438,540.4,539.1,0.0
52133.0,STARLINK-3707,PAYLOAD,2024-05-01 13:28:56,15.08849748,0.0001183,53.2189,228.8662,78.594,281.5185,5.6424e-05,6.1e-06,0.0,0 STARLINK-3707,1 52133U 22029AX  24122.56175961  .00000610  00000-0  56424-4 0  9992,2 52133  53.2189 228.8662 0001183  78.5940 281.5185 15.08849748118716,6917.851,95.437,540.534,538.897,0.0
52133.0,STARLINK-3707,PAYLOAD,2024-05-02 00:36:37,15.08847286,0.0001166,53.2188,226.7848,77.2658,282.8465,3.9536e-05,3.42e-06,0.0,0 STARLINK-3707,1 52133U 22029AX  24123.02543846  .00000342  00000-0  39536-4 0  9992,2 52133  53.2188 226.7848 0001166  77.2658 282.8465 15.08847286118788,6917.858,95.437,540.53,538.916,0.0
52133.0,STARLINK-3707,PAYLOAD,2024-05-02 13:19:43,15.08841305,0.0001219,53.2166,224.4061,89.0227,271.0905,1.355e-05,-7.2e-07,0.0,0 STARLINK-3707,1 52133U 22029AX  24123.55536166 -.00000072  00000-0  13550-4 0  9996,2 52133  53.2166 224.4061 0001219  89.0227 271.0905 15.08841305118862,6917.876,95.437,540.585,538.898,0.0
52133.0,STARLINK-3707,PAYLOAD,2024-05-03 13:10:28,15.08861498,0.0001083,53.2164,219.944,81.3465,278.765,0.00030982,4.649e-05,0.0,0 STARLINK-3707,1 52133U 22029AX  24124.54894549  .00004649  00000-0  30982-3 0  9998,2 52133  53.2164 219.9440 0001083  81.3465 278.7650 15.08861498119012,6917.815,95.436,540.429,538.93,0.0
52133.0,STARLINK-3707,PAYLOAD,2024-05-04 13:01:17,15.08827908,0.0001078,53.2163,215.4837,85.657,274.4545,-0.00012623,-2.295e-05,0.0,0 STARLINK-3707,1 52133U 22029AX  24125.54256520 -.00002295  00000-0 -12623-3 0  9999,2 52133  53.2163 215.4837 0001078  85.6570 274.4545 15.08827908119160,6917.917,95.438,540.528,539.037,0.0
52133.0,STARLINK-3707,PAYLOAD,2024-05-04 22:33:36,15.08834318,0.0001145,53.2173,213.701,95.0626,265.0497,-2.413e-05,-6.72e-06,0.0,0 STARLINK-3707,1 52133U 22029AX  24125.94000286 -.00000672  00000-0 -24130-4 0  9993,2 52133  53.2173 213.7010 0001145  95.0626 265.0497 15.08834318119229,6917.898,95.438,540.555,538.971,0.0
52133.0,STARLINK-3707,PAYLOAD,2024-05-05 14:27:27,15.08850743,0.0001068,53.2169,210.7273,95.4687,264.6427,0.00062368,9.655e-05,0.0,0 STARLINK-3707,1 52133U 22029AX  24126.60240187  .00009655  00000-0  62368-3 0  9995,2 52133  53.2169 210.7273 0001068  95.4687 264.6427 15.08850743119326,6917.848,95.437,540.451,538.974,0.0
52133.0,STARLINK-3707,PAYLOAD,2024-05-05 22:24:23,15.08850348,0.0001055,53.2169,209.2399,89.3662,270.7451,0.00065256,0.00010116,0.0,0 STARLINK-3707,1 52133U 22029AX  24126.93360354  .00010116  00000-0  65256-3 0  9993,2 52133  53.2169 209.2399 0001055  89.3662 270.7451 15.08850348119370,6917.849,95.437,540.444,538.984,0.0
52133.0,STARLINK-3707,PAYLOAD,2024-05-06 04:45:55,15.08848155,0.0001178,53.2166,208.0545,100.3476,259.7649,0.00041628,6.345e-05,0.0,0 STARLINK-3707,1 52133U 22029AX  24127.19856340  .00006345  00000-0  41628-3 0  9993,2 52133  53.2166 208.0545 0001178 100.3476 259.7649 15.08848155119414,6917.855,95.437,540.535,538.906,0.0
52133.0,STARLINK-3707,PAYLOAD,2024-05-06 12:42:51,15.08846188,0.0001361,53.2176,206.567,87.4881,272.6267,0.00025625,3.793e-05,0.0,0 STARLINK-3707,1 52133U 22029AX  24127.52976365  .00003793  00000-0  25625-3 0  9993,2 52133  53.2176 206.5670 0001361  87.4881 272.6267 15.08846188119465,6917.861,95.437,540.668,538.785,0.0
52133.0,STARLINK-3707,PAYLOAD,2024-05-07 04:36:42,15.08851326,0.0001194,53.2181,203.5936,95.6181,264.4947,0.00032048,4.818e-05,0.0,0 STARLINK-3707,1 52133U 22029AX  24128.19216085  .00004818  00000-0  32048-3 0  9999,2 52133  53.2181 203.5936 0001194  95.6181 264.4947 15.08851326119566,6917.846,95.437,540.537,538.885,0.0
52133.0,STARLINK-3707,PAYLOAD,2024-05-07 12:33:38,15.08849541,0.0001083,53.216,202.1045,80.326,279.7855,0.00015799,2.228e-05,0.0,0 STARLINK-3707,1 52133U 22029AX  24128.52335930  .00002228  00000-0  15799-3 0  9994,2 52133  53.2160 202.1045 0001083  80.3260 279.7855 15.08849541119614,6917.851,95.437,540.465,538.967,0.0
52133.0,STARLINK-3707,PAYLOAD,2024-05-08 04:27:29,15.08844402,0.0001159,53.2138,199.1316,76.7834,283.3287,0.00015343,2.155e-05,0.0,0 STARLINK-3707,1 52133U 22029AX  24129.18576115  .00002155  00000-0  15343-3 0  9993,2 52133  53.2138 199.1316 0001159  76.7834 283.3287 15.08844402119717,6917.867,95.437,540.534,538.93,0.0
52133.0,STARLINK-3707,PAYLOAD,2024-05-08 10:49:02,15.08844746,0.0001164,53.2153,197.9421,79.9313,280.1811,0.00015283,2.146e-05,0.0,0 STARLINK-3707,1 52133U 22029AX  24129.45072139  .00002146  00000-0  15283-3 0  9993,2 52133  53.2153 197.9421 0001164  79.9313 280.1811 15.08844746119753,6917.866,95.437,540.536,538.926,0.0
52133.0,STARLINK-3707,PAYLOAD,2024-05-08 21:56:44,15.08846956,0.0001144,53.2159,195.8605,84.036,276.0763,0.0001788,2.559e-05,0.0,0 STARLINK-3707,1 52133U 22029AX  24129.91439935  .00002559  00000-0  17880-3 0  9998,2 52133  53.2159 195.8605 0001144  84.0360 276.0763 15.08846956119820,6917.859,95.437,540.516,538.933,0.0
52133.0,STARLINK-3707,PAYLOAD,2024-05-09 10:39:49,15.08846912,0.0001184,53.2156,193.4823,80.045,280.0676,0.00021287,3.102e-05,0.0,0 STARLINK-3707,1 52133U 22029AX  24130.44431964  .00003102  00000-0  21287-3 0  9993,2 52133  53.2156 193.4823 0001184  80.0450 280.0676 15.08846912119902,6917.859,95.437,540.543,538.905,0.0
52133.0,STARLINK-3707,PAYLOAD,2024-05-10 04:09:03,15.08842646,0.0001125,53.2142,190.2108,86.3384,273.7736,0.00018251,2.618e-05,0.0,0 STARLINK-3707,1 52133U 22029AX  24131.17296177  .00002618  00000-0  18251-3 0  9997,2 52133  53.2142 190.2108 0001125  86.3384 273.7736 15.08842646120018,6917.872,95.437,540.516,538.959,0.0
52133.0,STARLINK-3707,PAYLOAD,2024-05-10 10:30:36,15.08844127,0.0001243,53.2163,189.0209,83.1066,277.0068,0.00014512,2.023e-05,0.0,0 STARLINK-3707,1 52133U 22029AX  24131.43792185  .00002023  00000-0  14512-3 0  9992,2 52133  53.2163 189.0209 0001243  83.1066 277.0068 15.08844127120057,6917.868,95.437,540.593,538.873,0.0
52133.0,STARLINK-3707,PAYLOAD,2024-05-11 08:45:58,15.08904141,0.000131,53.2156,184.8571,87.7592,272.355,0.0014641,0.00023131,0.0,0 STARLINK-3707,1 52133U 22029AX  24132.36526575  .00023131  00000-0  14641-2 0  9998,2 52133  53.2156 184.8571 0001310  87.7592 272.3550 15.08904141120195,6917.684,95.433,540.456,538.643,0.0
52133.0,STARLINK-3707,PAYLOAD,2024-05-11 19:53:40,15.08877183,0.0001053,53.216,182.7741,62.2815,297.8284,0.0005889,9.106e-05,0.0,0 STARLINK-3707,1 52133U 22029AX  24132.82893525  .00009106  00000-0  58890-3 0  9992,2 52133  53.2160 182.7741 0001053  62.2815 297.8284 15.08877183120265,6917.767,95.435,540.36,538.903,0.0
52133.0,STARLINK-3707,PAYLOAD,2024-05-12 03:50:39,15.08762436,0.000135,53.2167,181.2881,87.5266,272.588,-0.0019373,-0.00030923,0.0,0 STARLINK-3707,1 52133U 22029AX  24133.16017701 -.00030923  00000-0 -19373-2 0  9999,2 52133  53.2167 181.2881 0001350  87.5266 272.5880 15.08762436120313,6918.117,95.442,540.916,539.049,0.0
52133.0,STARLINK-3707,PAYLOAD,2024-05-12 10:12:12,15.08747232,0.0001375,53.2168,180.1,89.0199,271.0951,-0.0021675,-0.00034531,0.0,0 STARLINK-3707,1 52133U 22029AX  24133.42514763 -.00034531  00000-0 -21675-2 0  9995,2 52133  53.2168 180.1000 0001375  89.0199 271.0951 15.08747232120358,6918.164,95.443,540.98,539.078,0.0
52133.0,STARLINK-3707,PAYLOAD,2024-05-12 19:44:33,15.08769692,0.0002106,53.2177,178.3155,94.5185,265.6048,-0.0005849,-9.567e-05,0.0,0 STARLINK-3707,1 52133U 22029AX  24133.82260645 -.00009567  00000-0 -58490-3 0  9993,2 52133  53.2177 178.3155 0002106  94.5185 265.6048 15.08769692120414,6918.095,95.442,541.417,538.503,0.0
52133.0,STARLINK-3707,PAYLOAD,2024-05-13 10:03:02,15.08819711,0.0001491,53.2155,175.6389,107.9246,252.1909,0.0022599,0.00035842,0.0,0 STARLINK-3707,1 52133U 22029AX  24134.41878364  .00035842  00000-0  22599-2 0  9995,2 52133  53.2155 175.6389 0001491 107.9246 252.1909 15.08819711120507,6917.942,95.439,540.839,538.776,0.0
52133.0,STARLINK-3707,PAYLOAD,2024-05-13 19:35:21,15.08840939,0.0001412,53.2157,173.8548,109.0009,251.1136,0.0013843,0.00021812,0.0,0 STARLINK-3707,1 52133U 22029AX  24134.81622138  .00021812  00000-0  13843-2 0  9999,2 52133  53.2157 173.8548 0001412 109.0009 251.1136 15.08840939120562,6917.878,95.437,540.719,538.766,0.0
52133.0,STARLINK-3707,PAYLOAD,2024-05-14 11:29:12,15.08859407,0.0001319,53.2159,170.8817,103.9959,256.118,0.0010083,0.00015804,0.0,0 STARLINK-3707,1 52133U 22029AX  24135.47861259  .00015804  00000-0  10083-2 0  9998,2 52133  53.2159 170.8817 0001319 103.9959 256.1180 15.08859407120668,6917.821,95.436,540.599,538.774,0.0
52133.0,STARLINK-3707,PAYLOAD,2024-05-15 09:44:33,15.08901237,0.0001257,53.2156,166.7182,104.3366,255.7766,0.00096553,0.00015138,0.0,0 STARLINK-3707,1 52133U 22029AX  24136.40593829  .00015138  00000-0  96553-3 0  9994,2 52133  53.2156 166.7182 0001257 104.3366 255.7766 15.08901237120802,6917.693,95.434,540.428,538.689,0.0
52133.0,STARLINK-3707,PAYLOAD,2024-05-16 01:38:23,15.08875448,0.0001365,53.2158,163.7444,97.9672,262.1475,0.00030227,4.531e-05,0.0,0 STARLINK-3707,1 52133U 22029AX  24137.06833051  .00004531  00000-0  30227-3 0  9992,2 52133  53.2158 163.7444 0001365  97.9672 262.1475 15.08875448120903,6917.772,95.435,540.581,538.693,0.0
52133.0,STARLINK-3707,PAYLOAD,2024-05-16 11:10:42,15.08868327,0.0001248,53.2159,161.96,90.2087,269.9048,0.0006921,0.00010752,0.0,0 STARLINK-3707,1 52133U 22029AX  24137.46576750  .00010752  00000-0  69210-3 0  9992,2 52133  53.2159 161.9600 0001248  90.2087 269.9048 15.08868327120969,6917.794,95.436,540.522,538.795,0.0
